[{"OBJECT_NAME":"JCSAT-3A","OBJECT_ID":"2006-033A","EPOCH":"2026-03-09T23:51:38.733120","MEAN_MOTION":1.00272679,"ECCENTRICITY":0.00020179,"INCLINATION":0.0464,"RA_OF_ASC_NODE":277.1748,"ARG_OF_PERICENTER":85.143,"MEAN_ANOMALY":291.2529,"EPHEMERIS_TYPE":0,"CLASSIFICATION_TYPE":"U","NORAD_CAT_ID":29272,"ELEMENT_SET_NO":999,"REV_AT_EPOCH":4674,"BSTAR":0,"MEAN_MOTION_DOT":-3.43e-6,"MEAN_MOTION_DDOT":0},{"OBJECT_NAME":"COSMOS 2526","OBJECT_ID":"2018-037A","EPOCH":"2026-03-09T23:00:25.778016","MEAN_MOTION":1.00267082,"ECCENTRICITY":4.454e-5,"INCLINATION":0.0107,"RA_OF_ASC_NODE":171.8323,"ARG_OF_PERICENTER":166.484,"MEAN_ANOMALY":302.468,"EPHEMERIS_TYPE":0,"CLASSIFICATION_TYPE":"U","NORAD_CAT_ID":43432,"ELEMENT_SET_NO":999,"REV_AT_EPOCH":2896,"BSTAR":0,"MEAN_MOTION_DOT":-3.43e-6,"MEAN_MOTION_DDOT":0}]
